{
  "type": "FeatureCollection",
  "features": [
    {
      "type": "Feature",
      "properties": {
        "norad_id": 44873,
        "name": "CSG-1",
        "group": "resource",
        "lat": 0.11052251815170148,
        "lon": 164.83966698071166,
        "alt_km": 625.4329031205552,
        "timestamp": "2025-12-09T11:33:54.458158+00:00",
        "meta_object_name": "CSG-1",
        "meta_object_id": "2019-092A",
        "meta_epoch": "2025-12-09T03:27:48.124800",
        "meta_mean_motion": 14.82155989,
        "meta_eccentricity": 0.0001462,
        "meta_inclination": 97.8811,
        "meta_ra_of_asc_node": 164.5226,
        "meta_arg_of_pericenter": 85.6004,
        "meta_mean_anomaly": 274.5376,
        "meta_ephemeris_type": 0,
        "meta_classification_type": "U",
        "meta_norad_cat_id": 44873,
        "meta_element_set_no": 999,
        "meta_rev_at_epoch": 32332,
        "meta_bstar": 0.00013174,
        "meta_mean_motion_dot": 9.97e-06,
        "meta_mean_motion_ddot": 0,
        "tle_line1": "1 44873U 19092A   25343.14430700  .00000997  00000+0  13174-3 0  9996",
        "tle_line2": "2 44873  97.8811 164.5226 0001462  85.6004 274.5376 14.82155989323323"
      },
      "geometry": {
        "type": "Point",
        "coordinates": [
          164.83966698071166,
          0.11052251815170148
        ]
      }
    },
    {
      "type": "Feature",
      "properties": {
        "norad_id": 46277,
        "name": "NEMO-HD",
        "group": "resource",
        "lat": -18.62770025767479,
        "lon": -139.82820619022203,
        "alt_km": 451.7201496783182,
        "timestamp": "2025-12-09T11:33:54.458168+00:00",
        "meta_object_name": "NEMO-HD",
        "meta_object_id": "2020-061F",
        "meta_epoch": "2025-12-09T04:28:06.296736",
        "meta_mean_motion": 15.40211648,
        "meta_eccentricity": 0.0002093,
        "meta_inclination": 97.2211,
        "meta_ra_of_asc_node": 42.3294,
        "meta_arg_of_pericenter": 61.0067,
        "meta_mean_anomaly": 299.1389,
        "meta_ephemeris_type": 0,
        "meta_classification_type": "U",
        "meta_norad_cat_id": 46277,
        "meta_element_set_no": 999,
        "meta_rev_at_epoch": 29269,
        "meta_bstar": 0.00032349,
        "meta_mean_motion_dot": 0.00012922,
        "meta_mean_motion_ddot": 0,
        "tle_line1": "1 46277U 20061F   25343.18618399  .00012922  00000+0  32349-3 0  9996",
        "tle_line2": "2 46277  97.2211  42.3294 0002093  61.0067 299.1389 15.40211648292699"
      },
      "geometry": {
        "type": "Point",
        "coordinates": [
          -139.82820619022203,
          -18.62770025767479
        ]
      }
    },
    {
      "type": "Feature",
      "properties": {
        "norad_id": 46984,
        "name": "SENTINEL-6A",
        "group": "resource",
        "lat": -15.940851941692008,
        "lon": -3.627977258127745,
        "alt_km": 1339.588532873876,
        "timestamp": "2025-12-09T11:33:54.458178+00:00",
        "meta_object_name": "SENTINEL-6A",
        "meta_object_id": "2020-086A",
        "meta_epoch": "2025-12-08T21:25:14.032128",
        "meta_mean_motion": 12.80930456,
        "meta_eccentricity": 0.0007737,
        "meta_inclination": 66.0391,
        "meta_ra_of_asc_node": 170.2992,
        "meta_arg_of_pericenter": 269.2247,
        "meta_mean_anomaly": 90.7882,
        "meta_ephemeris_type": 0,
        "meta_classification_type": "U",
        "meta_norad_cat_id": 46984,
        "meta_element_set_no": 999,
        "meta_rev_at_epoch": 23595,
        "meta_bstar": 4.1436e-05,
        "meta_mean_motion_dot": -5.1e-07,
        "meta_mean_motion_ddot": 0,
        "tle_line1": "1 46984U 20086A   25342.89252352 -.00000051  00000+0  41436-4 0  9997",
        "tle_line2": "2 46984  66.0391 170.2992 0007737 269.2247  90.7882 12.80930456235950"
      },
      "geometry": {
        "type": "Point",
        "coordinates": [
          -3.627977258127745,
          -15.940851941692008
        ]
      }
    },
    {
      "type": "Feature",
      "properties": {
        "norad_id": 48079,
        "name": "GAOFEN-12 02",
        "group": "resource",
        "lat": -78.71382747595915,
        "lon": 22.201137519705274,
        "alt_km": 636.9526509171774,
        "timestamp": "2025-12-09T11:33:54.458188+00:00",
        "meta_object_name": "GAOFEN-12 02",
        "meta_object_id": "2021-026A",
        "meta_epoch": "2025-12-09T05:26:51.815040",
        "meta_mean_motion": 14.80668117,
        "meta_eccentricity": 0.0003463,
        "meta_inclination": 97.985,
        "meta_ra_of_asc_node": 337.2504,
        "meta_arg_of_pericenter": 107.8954,
        "meta_mean_anomaly": 252.2635,
        "meta_ephemeris_type": 0,
        "meta_classification_type": "U",
        "meta_norad_cat_id": 48079,
        "meta_element_set_no": 999,
        "meta_rev_at_epoch": 25365,
        "meta_bstar": 0.00011317,
        "meta_mean_motion_dot": 8.17e-06,
        "meta_mean_motion_ddot": 0,
        "tle_line1": "1 48079U 21026A   25343.22698860  .00000817  00000+0  11317-3 0  9998",
        "tle_line2": "2 48079  97.9850 337.2504 0003463 107.8954 252.2635 14.80668117253650"
      },
      "geometry": {
        "type": "Point",
        "coordinates": [
          22.201137519705274,
          -78.71382747595915
        ]
      }
    },
    {
      "type": "Feature",
      "properties": {
        "norad_id": 48268,
        "name": "PLEIADES NEO 3",
        "group": "resource",
        "lat": -26.554171574565462,
        "lon": 59.946503464474425,
        "alt_km": 630.2620830677388,
        "timestamp": "2025-12-09T11:33:54.458198+00:00",
        "meta_object_name": "PLEIADES NEO 3",
        "meta_object_id": "2021-034A",
        "meta_epoch": "2025-12-08T17:51:26.688096",
        "meta_mean_motion": 14.81674889,
        "meta_eccentricity": 0.00013213,
        "meta_inclination": 97.8951,
        "meta_ra_of_asc_node": 55.2426,
        "meta_arg_of_pericenter": 96.866,
        "meta_mean_anomaly": 263.2703,
        "meta_ephemeris_type": 0,
        "meta_classification_type": "U",
        "meta_norad_cat_id": 48268,
        "meta_element_set_no": 999,
        "meta_rev_at_epoch": 24945,
        "meta_bstar": 2.6372942e-05,
        "meta_mean_motion_dot": 1.55e-06,
        "meta_mean_motion_ddot": 0,
        "tle_line1": "1 48268U 21034A   25342.74405889  .00000155  00000+0  26373-4 0  9994",
        "tle_line2": "2 48268  97.8951  55.2426 0001321  96.8660 263.2703 14.81674889249458"
      },
      "geometry": {
        "type": "Point",
        "coordinates": [
          59.946503464474425,
          -26.554171574565462
        ]
      }
    },
    {
      "type": "Feature",
      "properties": {
        "norad_id": 49070,
        "name": "PLEIADES NEO 4",
        "group": "resource",
        "lat": 26.247492409765275,
        "lon": -120.11111727747125,
        "alt_km": 622.667474590271,
        "timestamp": "2025-12-09T11:33:54.458208+00:00",
        "meta_object_name": "PLEIADES NEO 4",
        "meta_object_id": "2021-073E",
        "meta_epoch": "2025-12-09T07:38:01.376736",
        "meta_mean_motion": 14.81677158,
        "meta_eccentricity": 0.0001287,
        "meta_inclination": 97.8949,
        "meta_ra_of_asc_node": 55.804,
        "meta_arg_of_pericenter": 95.2509,
        "meta_mean_anomaly": 264.8851,
        "meta_ephemeris_type": 0,
        "meta_classification_type": "U",
        "meta_norad_cat_id": 49070,
        "meta_element_set_no": 999,
        "meta_rev_at_epoch": 23325,
        "meta_bstar": 1.9922e-05,
        "meta_mean_motion_dot": 1.05e-06,
        "meta_mean_motion_ddot": 0,
        "tle_line1": "1 49070U 21073E   25343.31807149  .00000105  00000+0  19922-4 0  9995",
        "tle_line2": "2 49070  97.8949  55.8040 0001287  95.2509 264.8851 14.81677158233255"
      },
      "geometry": {
        "type": "Point",
        "coordinates": [
          -120.11111727747125,
          26.247492409765275
        ]
      }
    },
    {
      "type": "Feature",
      "properties": {
        "norad_id": 49260,
        "name": "LANDSAT 9",
        "group": "resource",
        "lat": 78.78521330068293,
        "lon": -81.62875349030863,
        "alt_km": 694.3437170177021,
        "timestamp": "2025-12-09T11:33:54.458218+00:00",
        "meta_object_name": "LANDSAT 9",
        "meta_object_id": "2021-088A",
        "meta_epoch": "2025-12-09T04:31:35.407200",
        "meta_mean_motion": 14.57124253,
        "meta_eccentricity": 0.000111,
        "meta_inclination": 98.2098,
        "meta_ra_of_asc_node": 51.3511,
        "meta_arg_of_pericenter": 94.4976,
        "meta_mean_anomaly": 265.6349,
        "meta_ephemeris_type": 0,
        "meta_classification_type": "U",
        "meta_norad_cat_id": 49260,
        "meta_element_set_no": 999,
        "meta_rev_at_epoch": 22333,
        "meta_bstar": 0.00016197,
        "meta_mean_motion_dot": 6.85e-06,
        "meta_mean_motion_ddot": 0,
        "tle_line1": "1 49260U 21088A   25343.18860425  .00000685  00000+0  16197-3 0  9996",
        "tle_line2": "2 49260  98.2098  51.3511 0001110  94.4976 265.6349 14.57124253223339"
      },
      "geometry": {
        "type": "Point",
        "coordinates": [
          -81.62875349030863,
          78.78521330068293
        ]
      }
    }
  ]
}